OBJECT_NAME,OBJECT_ID,EPOCH,MEAN_MOTION,ECCENTRICITY,INCLINATION,RA_OF_ASC_NODE,ARG_OF_PERICENTER,MEAN_ANOMALY,EPHEMERIS_TYPE,CLASSIFICATION_TYPE,NORAD_CAT_ID,ELEMENT_SET_NO,REV_AT_EPOCH,BSTAR,MEAN_MOTION_DOT,MEAN_MOTION_DDOT
GOMX-1,2013-066Q,2026-06-29T12:15:18.743040,14.69500920,.0129591,97.6476,20.1957,38.4087,322.6258,0,U,39430,999,67172,.25409E-3,.1663E-4,0
CUBEBUG-2 (LO-74),2013-066AA,2026-06-29T07:42:34.325568,14.93858905,.00571,97.8907,129.3513,348.8931,11.1023,0,U,39440,999,67880,.40121E-3,.4338E-4,0
NEE-02 KRYSAOR,2013-066AB,2026-06-29T07:47:06.355968,14.86673392,.0066883,97.8896,119.4528,31.1697,329.3459,0,U,39441,999,67800,.29043E-3,.2628E-4,0
FUNCUBE-1 (AO-73),2013-066AE,2026-06-28T22:07:29.307072,15.09627566,.00368849,97.8277,151.6136,160.9318,199.3301,0,U,39444,999,68143,.39162951E-3,.6331E-4,0
UWE-3,2013-066AG,2026-06-28T20:17:33.724608,14.97114508,.00468892,97.8711,135.9993,281.4584,78.1373,0,U,39446,999,67932,.258706E-3,.2989E-4,0
SMDC ONE 2.4,2013-072H,2026-06-29T10:48:16.066944,15.18425996,.0146874,120.4927,39.4380,31.9926,328.9968,0,U,39469,999,11969,.3811E-3,.10107E-3,0
COSMOS 2488 (RODNIK-S 7),2013-076A,2026-06-29T12:21:07.800768,12.42906220,.0020874,82.4829,161.0144,69.9619,290.3705,0,U,39483,999,56742,.31351E-3,.53E-6,0
COSMOS 2489 (RODNIK-S 8),2013-076B,2026-06-29T11:45:47.678688,12.42879490,.0022695,82.4864,162.4124,69.8883,290.4636,0,U,39484,999,56747,-.65121E-3,-.8E-6,0
COSMOS 2490 (RODNIK-S 9),2013-076C,2026-06-29T13:01:15.479328,12.42878526,.002288,82.4812,160.4418,84.5103,275.8586,0,U,39485,999,56741,-.4213E-3,-.48E-6,0
KAZEOSAT 1,2014-024A,2026-06-29T12:15:42.326784,14.42085697,.0001218,98.3210,252.6520,75.9918,284.1407,0,U,39731,999,64033,.15685E-3,.473E-5,0
COSMOS 2496 (RODNIK-S 10),2014-028A,2026-06-29T12:00:03.754080,12.42878652,.0021299,82.4460,101.0202,53.4832,306.8205,0,U,39761,999,54904,-.33389E-3,-.36E-6,0
COSMOS 2497 (RODNIK-S 11),2014-028B,2026-06-29T13:20:09.374784,12.42894336,.0021799,82.4509,102.6799,48.5815,311.7133,0,U,39762,999,54905,-.4968E-3,-.59E-6,0
COSMOS 2498 (RODNIK-S 12),2014-028C,2026-06-29T12:46:40.261152,12.42980200,.0022515,82.4468,101.1762,48.2461,312.0539,0,U,39763,999,54908,-.39703E-3,-.45E-6,0
HODOYOSHI-4,2014-033B,2026-06-29T12:58:30.106272,14.88156696,.0021939,97.5450,4.7668,264.7250,95.1464,0,U,40011,999,65064,.18471E-3,.1656E-4,0
UNISAT-6,2014-033C,2026-06-29T08:52:23.871072,14.88303536,.0045501,97.7887,332.8678,30.0269,330.3542,0,U,40012,999,64797,.29498E-3,.2723E-4,0
DEIMOS-2,2014-033D,2026-06-29T13:49:14.598624,14.93754913,.0000882,97.5817,54.6290,55.2324,304.8980,0,U,40013,999,63957,.78747E-4,.78E-5,0
BUGSAT-1 (TITA),2014-033E,2026-06-29T12:20:09.597408,15.15722162,.0028885,98.0441,273.7844,136.9345,223.4154,0,U,40014,999,65770,.28434E-3,.5399E-4,0
SAUDISAT 4,2014-033G,2026-06-29T08:38:00.939840,14.79559608,.0045557,97.7596,326.0741,35.3780,325.0439,0,U,40016,999,64787,.87969E-4,.618E-5,0
APRIZESAT 9,2014-033J,2026-06-29T08:34:09.469920,14.74232029,.0066642,97.9075,313.2590,160.0648,200.3187,0,U,40018,999,64535,.12448E-3,.8E-5,0
BRITE-CA1 (TORONTO),2014-033L,2026-06-29T08:03:25.497792,14.72695672,.0077443,97.9753,309.0406,237.4573,121.9137,0,U,40020,999,64400,.14871E-3,.94E-5,0
DUCHIFAT-1,2014-033M,2026-06-28T23:20:46.849344,15.67092926,.00006459,98.0456,240.8096,103.8669,256.2662,0,U,40021,999,65759,.10874878E-2,.117244E-2,0
NANOSATC-BR1,2014-033Q,2026-06-28T15:19:22.941408,15.31817768,.00051553,98.0715,213.0430,135.6679,224.4974,0,U,40024,999,65573,.52837199E-3,.16168E-3,0
